*******************************************************************************
Ephemeris / WWW_USER Mon Jul 15 19:09:36 2024 Pasadena, USA      / Horizons    
*******************************************************************************
Target body name: (2018 RY7)                      {source: JPL#20}
Center body name: Earth (399)                     {source: DE441}
Center-site name: Gemini South Obs., Cerro Pachon
*******************************************************************************
Start time      : A.D. 2019-Jan-20 23:56:00.0000 UT      
Stop  time      : A.D. 2019-Jan-21 09:52:00.0000 UT      
Step-size       : 1 minutes
*******************************************************************************
Target pole/equ : undefined
Target radii    : undefined                                                    
Center geodetic : 289.2634, -30.2406227, 2.71233  {E-lon(deg),Lat(deg),Alt(km)}
Center cylindric: 289.2634,5517.21435,-3194.81213 {E-lon(deg),Dxy(km),Dz(km)}
Center pole/equ : ITRF93                          {East-longitude positive}
Center radii    : 6378.137, 6378.137, 6356.752 km {Equator_a, b, pole_c}       
Target primary  : Sun
Vis. interferer : MOON (R_eq= 1737.400) km        {source: DE441}
Rel. light bend : Sun                             {source: DE441}
Rel. lght bnd GM: 1.3271E+11 km^3/s^2                                          
Small-body perts: Yes                             {source: SB441-N16}
Atmos refraction: NO (AIRLESS)
RA format       : HMS
Time format     : CAL 
Calendar mode   : Mixed Julian/Gregorian
RTS-only print  : NO       
EOP file        : eop.240715.p241008                                           
EOP coverage    : DATA-BASED 1962-JAN-20 TO 2024-JUL-15. PREDICTS-> 2024-OCT-07
Units conversion: 1 au= 149597870.700 km, c= 299792.458 km/s, 1 day= 86400.0 s 
Table cut-offs 1: Elevation (-90.0deg=NO ),Airmass (>38.000=NO), Daylight (YES)
Table cut-offs 2: Solar elongation (  0.0,180.0=NO ),Local Hour Angle( 0.0=NO )
Table cut-offs 3: RA/DEC angular rate (     0.0=NO )                           
*******************************************************************************
Initial IAU76/J2000 heliocentric ecliptic osculating elements (au, days, deg.):
  EPOCH=  2458422.5 ! 2018-Oct-31.00 (TDB)         Residual RMS= .22459        
   EC= .1470549687381346   QR= .8667733479166969   TP= 2458516.8896767548      
   OM= 2.838668085760325   W=  136.9006026425241   IN= 13.35135890147074       
  Equivalent ICRF heliocentric cartesian coordinates (au, au/d):
   X= 8.791791513870114E-01  Y= 4.508422091141234E-01  Z= 3.244113040133835E-01
  VX=-1.085418916943652E-02 VY= 1.006005810562689E-02 VZ= 7.673980932675997E-03
Asteroid physical parameters (km, seconds, rotational period in hours):        
   GM= n.a.                RAD= n.a.               ROTPER= n.a.                
   H= 24.4                 G= .150                 B-V= n.a.                   
                           ALBEDO= n.a.            STYP= n.a.                  
*******************************************************************************
 Date__(UT)__HR:MN     R.A._________(ICRF)_________DEC
******************************************************
$$SOE
 2019-Jan-21 01:59  m  18 18 55.247898 +26 45 00.06015
 2019-Jan-21 02:00  m  18 18 55.210806 +26 44 57.86900
 2019-Jan-21 02:01  m  18 18 55.173729 +26 44 55.67808
 2019-Jan-21 02:02  m  18 18 55.136667 +26 44 53.48739
 2019-Jan-21 02:03  m  18 18 55.099620 +26 44 51.29694
 2019-Jan-21 02:04  m  18 18 55.062587 +26 44 49.10672
 2019-Jan-21 02:05  m  18 18 55.025569 +26 44 46.91674
 2019-Jan-21 02:06  m  18 18 54.988565 +26 44 44.72700
 2019-Jan-21 02:07  m  18 18 54.951575 +26 44 42.53749
 2019-Jan-21 02:08  m  18 18 54.914599 +26 44 40.34821
 2019-Jan-21 02:09  m  18 18 54.877636 +26 44 38.15917
 2019-Jan-21 02:10  m  18 18 54.840687 +26 44 35.97037
 2019-Jan-21 02:11  m  18 18 54.803751 +26 44 33.78180
 2019-Jan-21 02:12  m  18 18 54.766828 +26 44 31.59348
 2019-Jan-21 02:13  m  18 18 54.729918 +26 44 29.40539
 2019-Jan-21 02:14  m  18 18 54.693021 +26 44 27.21753
 2019-Jan-21 02:15  m  18 18 54.656135 +26 44 25.02992
 2019-Jan-21 02:16  m  18 18 54.619262 +26 44 22.84254
 2019-Jan-21 02:17  m  18 18 54.582401 +26 44 20.65540
 2019-Jan-21 02:18  m  18 18 54.545552 +26 44 18.46850
 2019-Jan-21 02:19  m  18 18 54.508714 +26 44 16.28184
 2019-Jan-21 02:20  m  18 18 54.471888 +26 44 14.09541
 2019-Jan-21 02:21  m  18 18 54.435072 +26 44 11.90923
 2019-Jan-21 02:22  m  18 18 54.398268 +26 44 09.72329
 2019-Jan-21 02:23  m  18 18 54.361474 +26 44 07.53758
 2019-Jan-21 02:24  m  18 18 54.324691 +26 44 05.35212
 2019-Jan-21 02:25  m  18 18 54.287918 +26 44 03.16689
 2019-Jan-21 02:26  m  18 18 54.251155 +26 44 00.98191
 2019-Jan-21 02:27  m  18 18 54.214402 +26 43 58.79716
 2019-Jan-21 02:28  m  18 18 54.177658 +26 43 56.61266
 2019-Jan-21 02:29  m  18 18 54.140924 +26 43 54.42840
 2019-Jan-21 02:30  m  18 18 54.104199 +26 43 52.24438
 2019-Jan-21 02:31  m  18 18 54.067484 +26 43 50.06060
 2019-Jan-21 02:32  m  18 18 54.030777 +26 43 47.87706
 2019-Jan-21 02:33  m  18 18 53.994079 +26 43 45.69376
 2019-Jan-21 02:34  m  18 18 53.957389 +26 43 43.51070
 2019-Jan-21 02:35  m  18 18 53.920707 +26 43 41.32789
 2019-Jan-21 02:36  m  18 18 53.884033 +26 43 39.14532
 2019-Jan-21 02:37  m  18 18 53.847367 +26 43 36.96299
 2019-Jan-21 02:38  m  18 18 53.810709 +26 43 34.78090
 2019-Jan-21 02:39  m  18 18 53.774058 +26 43 32.59906
 2019-Jan-21 02:40  m  18 18 53.737414 +26 43 30.41745
 2019-Jan-21 02:41  m  18 18 53.700777 +26 43 28.23609
 2019-Jan-21 02:42  m  18 18 53.664147 +26 43 26.05497
 2019-Jan-21 02:43  m  18 18 53.627523 +26 43 23.87410
 2019-Jan-21 02:44  m  18 18 53.590906 +26 43 21.69347
 2019-Jan-21 02:45  m  18 18 53.554294 +26 43 19.51308
 2019-Jan-21 02:46  m  18 18 53.517689 +26 43 17.33293
 2019-Jan-21 02:47  m  18 18 53.481089 +26 43 15.15303
 2019-Jan-21 02:48  m  18 18 53.444495 +26 43 12.97337
 2019-Jan-21 02:49  m  18 18 53.407906 +26 43 10.79395
 2019-Jan-21 02:50  m  18 18 53.371321 +26 43 08.61478
 2019-Jan-21 02:51  m  18 18 53.334742 +26 43 06.43585
 2019-Jan-21 02:52  m  18 18 53.298168 +26 43 04.25716
 2019-Jan-21 02:53  m  18 18 53.261597 +26 43 02.07872
 2019-Jan-21 02:54  m  18 18 53.225031 +26 42 59.90052
 2019-Jan-21 02:55  m  18 18 53.188469 +26 42 57.72257
 2019-Jan-21 02:56  m  18 18 53.151911 +26 42 55.54485
 2019-Jan-21 02:57  m  18 18 53.115356 +26 42 53.36739
 2019-Jan-21 02:58  m  18 18 53.078804 +26 42 51.19016
 2019-Jan-21 02:59  m  18 18 53.042256 +26 42 49.01318
 2019-Jan-21 03:00  m  18 18 53.005711 +26 42 46.83644
 2019-Jan-21 03:01  m  18 18 52.969168 +26 42 44.65995
 2019-Jan-21 03:02  m  18 18 52.932628 +26 42 42.48370
 2019-Jan-21 03:03  m  18 18 52.896090 +26 42 40.30769
 2019-Jan-21 03:04  m  18 18 52.859554 +26 42 38.13193
 2019-Jan-21 03:05  m  18 18 52.823020 +26 42 35.95641
 2019-Jan-21 03:06  m  18 18 52.786487 +26 42 33.78114
 2019-Jan-21 03:07  m  18 18 52.749957 +26 42 31.60610
 2019-Jan-21 03:08  m  18 18 52.713427 +26 42 29.43131
 2019-Jan-21 03:09  m  18 18 52.676898 +26 42 27.25677
 2019-Jan-21 03:10  m  18 18 52.640370 +26 42 25.08247
 2019-Jan-21 03:11  m  18 18 52.603843 +26 42 22.90841
 2019-Jan-21 03:12  m  18 18 52.567316 +26 42 20.73459
 2019-Jan-21 03:13  m  18 18 52.530789 +26 42 18.56102
 2019-Jan-21 03:14  m  18 18 52.494262 +26 42 16.38769
 2019-Jan-21 03:15  m  18 18 52.457735 +26 42 14.21461
 2019-Jan-21 03:16  m  18 18 52.421208 +26 42 12.04177
 2019-Jan-21 03:17  m  18 18 52.384680 +26 42 09.86917
 2019-Jan-21 03:18  m  18 18 52.348151 +26 42 07.69681
 2019-Jan-21 03:19  m  18 18 52.311620 +26 42 05.52470
 2019-Jan-21 03:20  m  18 18 52.275089 +26 42 03.35283
 2019-Jan-21 03:21  m  18 18 52.238556 +26 42 01.18120
 2019-Jan-21 03:22  m  18 18 52.202021 +26 41 59.00981
 2019-Jan-21 03:23  m  18 18 52.165484 +26 41 56.83867
 2019-Jan-21 03:24  m  18 18 52.128945 +26 41 54.66777
 2019-Jan-21 03:25  m  18 18 52.092404 +26 41 52.49711
 2019-Jan-21 03:26  m  18 18 52.055860 +26 41 50.32669
 2019-Jan-21 03:27  m  18 18 52.019314 +26 41 48.15651
 2019-Jan-21 03:28  m  18 18 51.982764 +26 41 45.98658
 2019-Jan-21 03:29  m  18 18 51.946212 +26 41 43.81689
 2019-Jan-21 03:30  m  18 18 51.909655 +26 41 41.64743
 2019-Jan-21 03:31  m  18 18 51.873096 +26 41 39.47822
 2019-Jan-21 03:32  m  18 18 51.836532 +26 41 37.30925
 2019-Jan-21 03:33  m  18 18 51.799964 +26 41 35.14053
 2019-Jan-21 03:34  m  18 18 51.763392 +26 41 32.97204
 2019-Jan-21 03:35  m  18 18 51.726816 +26 41 30.80379
 2019-Jan-21 03:36  m  18 18 51.690235 +26 41 28.63578
 2019-Jan-21 03:37  m  18 18 51.653649 +26 41 26.46801
 2019-Jan-21 03:38  m  18 18 51.617058 +26 41 24.30049
 2019-Jan-21 03:39  m  18 18 51.580461 +26 41 22.13320
 2019-Jan-21 03:40  m  18 18 51.543860 +26 41 19.96615
 2019-Jan-21 03:41  m  18 18 51.507252 +26 41 17.79934
 2019-Jan-21 03:42  m  18 18 51.470639 +26 41 15.63277
 2019-Jan-21 03:43  m  18 18 51.434019 +26 41 13.46644
 2019-Jan-21 03:44  m  18 18 51.397393 +26 41 11.30035
 2019-Jan-21 03:45  m  18 18 51.360760 +26 41 09.13449
 2019-Jan-21 03:46  m  18 18 51.324121 +26 41 06.96887
 2019-Jan-21 03:47  m  18 18 51.287475 +26 41 04.80350
 2019-Jan-21 03:48  m  18 18 51.250821 +26 41 02.63835
 2019-Jan-21 03:49  m  18 18 51.214161 +26 41 00.47345
 2019-Jan-21 03:50  m  18 18 51.177492 +26 40 58.30878
 2019-Jan-21 03:51  m  18 18 51.140816 +26 40 56.14435
 2019-Jan-21 03:52  m  18 18 51.104132 +26 40 53.98016
 2019-Jan-21 03:53  m  18 18 51.067440 +26 40 51.81620
 2019-Jan-21 03:54  m  18 18 51.030739 +26 40 49.65248
 2019-Jan-21 03:55  m  18 18 50.994029 +26 40 47.48899
 2019-Jan-21 03:56  m  18 18 50.957311 +26 40 45.32574
 2019-Jan-21 03:57  m  18 18 50.920584 +26 40 43.16272
 2019-Jan-21 03:58  m  18 18 50.883847 +26 40 40.99994
 2019-Jan-21 03:59  m  18 18 50.847102 +26 40 38.83739
 2019-Jan-21 04:00  m  18 18 50.810346 +26 40 36.67508
 2019-Jan-21 04:01  m  18 18 50.773581 +26 40 34.51300
